Deputy Satellite Orbital Elements:
Semi-major axis: 7079136.300 m (701.0 km alt)
Eccentricity:    0.001500
Inclination:     97.8500°
RAAN:            15.0500°
Arg of perigee:  30.0500°
Mean anomaly:    45.0500°
